{
  "type": "FeatureCollection",
  "features": [
    {
      "type": "Feature",
      "properties": {
        "norad_id": 44793,
        "name": "BEIDOU-3 M22 (C44)",
        "group": "beidou",
        "lat": 50.137540837656694,
        "lon": 66.56812428606808,
        "alt_km": 21520.91349376122,
        "timestamp": "2025-12-05T09:41:19.393468+00:00",
        "meta_object_name": "BEIDOU-3 M22 (C44)",
        "meta_object_id": "2019-078A",
        "meta_epoch": "2025-12-02T00:28:58.554624",
        "meta_mean_motion": 1.86231817,
        "meta_eccentricity": 0.00056333,
        "meta_inclination": 54.1183,
        "meta_ra_of_asc_node": 306.7625,
        "meta_arg_of_pericenter": 22.616,
        "meta_mean_anomaly": 337.398,
        "meta_ephemeris_type": 0,
        "meta_classification_type": "U",
        "meta_norad_cat_id": 44793,
        "meta_element_set_no": 999,
        "meta_rev_at_epoch": 4097,
        "meta_bstar": 0,
        "meta_mean_motion_dot": -6.1e-07,
        "meta_mean_motion_ddot": 0,
        "tle_line1": "1 44793U 19078A   25336.02012216 -.00000061  00000+0  00000+0 0  9991",
        "tle_line2": "2 44793  54.1183 306.7625 0005633  22.6160 337.3980  1.86231817 40974"
      },
      "geometry": {
        "type": "Point",
        "coordinates": [
          66.56812428606808,
          50.137540837656694
        ]
      }
    },
    {
      "type": "Feature",
      "properties": {
        "norad_id": 44794,
        "name": "BEIDOU-3 M21 (C43)",
        "group": "beidou",
        "lat": 13.190234416922687,
        "lon": -43.64194891498997,
        "alt_km": 21515.933327644867,
        "timestamp": "2025-12-05T09:41:19.393479+00:00",
        "meta_object_name": "BEIDOU-3 M21 (C43)",
        "meta_object_id": "2019-078B",
        "meta_epoch": "2025-12-04T07:19:45.423840",
        "meta_mean_motion": 1.86227545,
        "meta_eccentricity": 0.0003958,
        "meta_inclination": 54.0893,
        "meta_ra_of_asc_node": 306.6475,
        "meta_arg_of_pericenter": 10.7683,
        "meta_mean_anomaly": 349.2229,
        "meta_ephemeris_type": 0,
        "meta_classification_type": "U",
        "meta_norad_cat_id": 44794,
        "meta_element_set_no": 999,
        "meta_rev_at_epoch": 4102,
        "meta_bstar": 0,
        "meta_mean_motion_dot": -6.8e-07,
        "meta_mean_motion_ddot": 0,
        "tle_line1": "1 44794U 19078B   25338.30538685 -.00000068  00000+0  00000+0 0  9995",
        "tle_line2": "2 44794  54.0893 306.6475 0003958  10.7683 349.2229  1.86227545 41028"
      },
      "geometry": {
        "type": "Point",
        "coordinates": [
          -43.64194891498997,
          13.190234416922687
        ]
      }
    },
    {
      "type": "Feature",
      "properties": {
        "norad_id": 44864,
        "name": "BEIDOU-3 M19 (C41)",
        "group": "beidou",
        "lat": -26.098825034304912,
        "lon": -91.80367392310728,
        "alt_km": 21517.195280982734,
        "timestamp": "2025-12-05T09:41:19.393491+00:00",
        "meta_object_name": "BEIDOU-3 M19 (C41)",
        "meta_object_id": "2019-090A",
        "meta_epoch": "2025-12-02T22:27:31.551840",
        "meta_mean_motion": 1.86231053,
        "meta_eccentricity": 0.00175607,
        "meta_inclination": 56.3847,
        "meta_ra_of_asc_node": 69.2872,
        "meta_arg_of_pericenter": 284.9296,
        "meta_mean_anomaly": 72.494,
        "meta_ephemeris_type": 0,
        "meta_classification_type": "U",
        "meta_norad_cat_id": 44864,
        "meta_element_set_no": 999,
        "meta_rev_at_epoch": 4057,
        "meta_bstar": 0,
        "meta_mean_motion_dot": -4.9e-07,
        "meta_mean_motion_ddot": 0,
        "tle_line1": "1 44864U 19090A   25336.93578185 -.00000049  00000+0  00000+0 0  9992",
        "tle_line2": "2 44864  56.3847  69.2872 0017560 284.9296  72.4940  1.86231053 40575"
      },
      "geometry": {
        "type": "Point",
        "coordinates": [
          -91.80367392310728,
          -26.098825034304912
        ]
      }
    },
    {
      "type": "Feature",
      "properties": {
        "norad_id": 44865,
        "name": "BEIDOU-3 M20 (C42)",
        "group": "beidou",
        "lat": -45.16013508901379,
        "lon": 27.34908561466793,
        "alt_km": 21492.461399810243,
        "timestamp": "2025-12-05T09:41:19.393502+00:00",
        "meta_object_name": "BEIDOU-3 M20 (C42)",
        "meta_object_id": "2019-090B",
        "meta_epoch": "2025-12-02T19:15:49.919904",
        "meta_mean_motion": 1.86231044,
        "meta_eccentricity": 0.00146831,
        "meta_inclination": 56.3861,
        "meta_ra_of_asc_node": 69.3259,
        "meta_arg_of_pericenter": 297.6742,
        "meta_mean_anomaly": 60.1134,
        "meta_ephemeris_type": 0,
        "meta_classification_type": "U",
        "meta_norad_cat_id": 44865,
        "meta_element_set_no": 999,
        "meta_rev_at_epoch": 4055,
        "meta_bstar": 0,
        "meta_mean_motion_dot": -4.8e-07,
        "meta_mean_motion_ddot": 0,
        "tle_line1": "1 44865U 19090B   25336.80266111 -.00000048  00000+0  00000+0 0  9991",
        "tle_line2": "2 44865  56.3861  69.3259 0014683 297.6742  60.1134  1.86231044 40559"
      },
      "geometry": {
        "type": "Point",
        "coordinates": [
          27.34908561466793,
          -45.16013508901379
        ]
      }
    },
    {
      "type": "Feature",
      "properties": {
        "norad_id": 45344,
        "name": "BEIDOU-3 G2 (C60)",
        "group": "beidou",
        "lat": -2.914548301334247,
        "lon": -60.19898848664497,
        "alt_km": 35767.24157687726,
        "timestamp": "2025-12-05T09:41:19.393514+00:00",
        "meta_object_name": "BEIDOU-3 G2 (C60)",
        "meta_object_id": "2020-017A",
        "meta_epoch": "2025-12-04T17:31:57.734976",
        "meta_mean_motion": 1.00270168,
        "meta_eccentricity": 0.000472,
        "meta_inclination": 2.9855,
        "meta_ra_of_asc_node": 43.5945,
        "meta_arg_of_pericenter": 263.9668,
        "meta_mean_anomaly": 109.2773,
        "meta_ephemeris_type": 0,
        "meta_classification_type": "U",
        "meta_norad_cat_id": 45344,
        "meta_element_set_no": 999,
        "meta_rev_at_epoch": 2131,
        "meta_bstar": 0,
        "meta_mean_motion_dot": -1.29e-06,
        "meta_mean_motion_ddot": 0,
        "tle_line1": "1 45344U 20017A   25338.73052934 -.00000129  00000+0  00000+0 0  9995",
        "tle_line2": "2 45344   2.9855  43.5945 0004720 263.9668 109.2773  1.00270168 21315"
      },
      "geometry": {
        "type": "Point",
        "coordinates": [
          -60.19898848664497,
          -2.914548301334247
        ]
      }
    },
    {
      "type": "Feature",
      "properties": {
        "norad_id": 45807,
        "name": "BEIDOU-3 G3 (C61)",
        "group": "beidou",
        "lat": -1.9609737195497026,
        "lon": -29.79060450592448,
        "alt_km": 35771.98045375737,
        "timestamp": "2025-12-05T09:41:19.393526+00:00",
        "meta_object_name": "BEIDOU-3 G3 (C61)",
        "meta_object_id": "2020-040A",
        "meta_epoch": "2025-12-04T14:15:09.086688",
        "meta_mean_motion": 1.00265967,
        "meta_eccentricity": 0.0005053,
        "meta_inclination": 1.9702,
        "meta_ra_of_asc_node": 66.5394,
        "meta_arg_of_pericenter": 304.078,
        "meta_mean_anomaly": 27.323,
        "meta_ephemeris_type": 0,
        "meta_classification_type": "U",
        "meta_norad_cat_id": 45807,
        "meta_element_set_no": 999,
        "meta_rev_at_epoch": 2011,
        "meta_bstar": 0,
        "meta_mean_motion_dot": -3.4e-06,
        "meta_mean_motion_ddot": 0,
        "tle_line1": "1 45807U 20040A   25338.59385517 -.00000340  00000+0  00000+0 0  9990",
        "tle_line2": "2 45807   1.9702  66.5394 0005053 304.0780  27.3230  1.00265967 20110"
      },
      "geometry": {
        "type": "Point",
        "coordinates": [
          -29.79060450592448,
          -1.9609737195497026
        ]
      }
    },
    {
      "type": "Feature",
      "properties": {
        "norad_id": 56564,
        "name": "BEIDOU-3 G4 (C62)",
        "group": "beidou",
        "lat": 0.8367070410130177,
        "lon": 19.824224082421594,
        "alt_km": 35798.9681824065,
        "timestamp": "2025-12-05T09:41:19.393538+00:00",
        "meta_object_name": "BEIDOU-3 G4 (C62)",
        "meta_object_id": "2023-066A",
        "meta_epoch": "2025-12-04T16:13:38.733600",
        "meta_mean_motion": 1.00270909,
        "meta_eccentricity": 0.0003274,
        "meta_inclination": 0.8338,
        "meta_ra_of_asc_node": 301.3518,
        "meta_arg_of_pericenter": 236.2772,
        "meta_mean_anomaly": 299.5959,
        "meta_ephemeris_type": 0,
        "meta_classification_type": "U",
        "meta_norad_cat_id": 56564,
        "meta_element_set_no": 999,
        "meta_rev_at_epoch": 944,
        "meta_bstar": 0,
        "meta_mean_motion_dot": -9.6e-07,
        "meta_mean_motion_ddot": 0,
        "tle_line1": "1 56564U 23066A   25338.67614275 -.00000096  00000+0  00000+0 0  9996",
        "tle_line2": "2 56564   0.8338 301.3518 0003274 236.2772 299.5959  1.00270909  9449"
      },
      "geometry": {
        "type": "Point",
        "coordinates": [
          19.824224082421594,
          0.8367070410130177
        ]
      }
    }
  ]
}